NORAD_CAT_ID,OBJECT_NAME,OBJECT_TYPE,EPOCH,MEAN_MOTION,ECCENTRICITY,INCLINATION,RA_OF_ASC_NODE,ARG_OF_PERICENTER,MEAN_ANOMALY,BSTAR,MEAN_MOTION_DOT,MEAN_MOTION_DDOT,TLE_LINE0,TLE_LINE1,TLE_LINE2,SEMIMAJOR_AXIS,PERIOD,APOGEE,PERIGEE,DECAYED
56779.0,STARLINK-6231,PAYLOAD,2024-01-08 14:03:25,14.98331849,0.0002969,70.0001,159.1159,267.0912,92.9907,6.6865e-06,-1.3e-07,0.0,0 STARLINK-6231,1 56779U 23078N   24008.58570873 -.00000013  00000-0  66865-5 0  9992,2 56779  70.0001 159.1159 0002969 267.0912  92.9907 14.98331849 34663,6950.187,96.107,574.116,569.989,0.0
56779.0,STARLINK-6231,PAYLOAD,2024-01-08 20:27:57,14.98331206,0.0002997,70.0001,158.4431,269.496,90.5856,6.3359e-05,6.63e-06,0.0,0 STARLINK-6231,1 56779U 23078N   24008.85274744  .00000663  00000-0  63359-4 0  9994,2 56779  70.0001 158.4431 0002997 269.4960  90.5856 14.98331206 34707,6950.189,96.107,574.137,569.971,0.0
56779.0,STARLINK-6231,PAYLOAD,2024-01-09 10:53:10,14.98328261,0.0002948,70.0003,156.9283,267.7884,92.2938,-4.9564e-06,-1.52e-06,0.0,0 STARLINK-6231,1 56779U 23078N   24009.45359000 -.00000152  00000-0 -49564-5 0  9998,2 56779  70.0003 156.9283 0002948 267.7884  92.2938 14.98328261 35066,6950.198,96.107,574.112,570.014,0.0
56779.0,STARLINK-6231,PAYLOAD,2024-01-09 14:05:26,14.98327357,0.0002969,70.0002,156.5918,267.4933,92.5886,-1.516e-05,-2.74e-06,0.0,0 STARLINK-6231,1 56779U 23078N   24009.58711089 -.00000274  00000-0 -15160-4 0  9990,2 56779  70.0002 156.5918 0002969 267.4933  92.5886 14.98327357 34813,6950.201,96.107,574.13,570.003,0.0
56779.0,STARLINK-6231,PAYLOAD,2024-01-09 20:29:58,14.98329043,0.0002933,70.0003,155.9184,265.087,94.9954,3.2467e-06,-5.4e-07,0.0,0 STARLINK-6231,1 56779U 23078N   24009.85414932 -.00000054  00000-0  32467-5 0  9992,2 56779  70.0003 155.9184 0002933 265.0870  94.9954 14.98329043 34857,6950.196,96.107,574.099,570.022,0.0
56779.0,STARLINK-6231,PAYLOAD,2024-01-10 10:55:10,14.98330437,0.0002871,70.0005,154.4041,261.8667,98.2166,-9.2641e-06,-2.04e-06,0.0,0 STARLINK-6231,1 56779U 23078N   24010.45498822 -.00000204  00000-0 -92641-5 0  9998,2 56779  70.0005 154.4041 0002871 261.8667  98.2166 14.98330437 35216,6950.192,96.107,574.052,570.061,0.0
56779.0,STARLINK-6231,PAYLOAD,2024-01-11 12:33:20,14.98323797,0.0002784,70.0008,151.7124,256.6771,103.4078,-3.0456e-05,-4.56e-06,0.0,0 STARLINK-6231,1 56779U 23078N   24011.52315334 -.00000456  00000-0 -30456-4 0  9997,2 56779  70.0008 151.7124 0002784 256.6771 103.4078 14.98323797 35371,6950.212,96.107,574.012,570.142,0.0
56779.0,STARLINK-6231,PAYLOAD,2024-01-11 14:09:28,14.98323674,0.0002785,70.0008,151.5441,256.6,103.4849,-3.1234e-05,-4.66e-06,0.0,0 STARLINK-6231,1 56779U 23078N   24011.58991367 -.00000466  00000-0 -31234-4 0  9995,2 56779  70.0008 151.5441 0002785 256.6000 103.4849 14.98323674 35119,6950.212,96.107,574.013,570.142,0.0
56779.0,STARLINK-6231,PAYLOAD,2024-01-11 18:57:52,14.98324236,0.0002924,70.0003,151.0378,267.6729,92.4095,-2.8888e-05,-4.38e-06,0.0,0 STARLINK-6231,1 56779U 23078N   24011.79019439 -.00000438  00000-0 -28888-4 0  9999,2 56779  70.0003 151.0378 0002924 267.6729  92.4095 14.98324236 35141,6950.211,96.107,574.108,570.043,0.0
56779.0,STARLINK-6231,PAYLOAD,2024-01-12 14:11:29,14.98325861,0.0002943,70.0002,149.0184,267.7602,92.322,-3.3774e-05,-4.96e-06,0.0,0 STARLINK-6231,1 56779U 23078N   24012.59131580 -.00000496  00000-0 -33774-4 0  9994,2 56779  70.0002 149.0184 0002943 267.7602  92.3220 14.98325861 35261,6950.206,96.107,574.116,570.025,0.0
56779.0,STARLINK-6231,PAYLOAD,2024-01-12 18:59:53,14.98329978,0.0002991,70.0,148.5119,270.2523,89.8293,1.4464e-05,8e-07,0.0,0 STARLINK-6231,1 56779U 23078N   24012.79159240  .00000080  00000-0  14464-4 0  9991,2 56779  70.0000 148.5119 0002991 270.2523  89.8293 14.98329978 35562,6950.193,96.107,574.137,569.979,0.0
56779.0,STARLINK-6231,PAYLOAD,2024-01-13 14:13:29,14.9833468,0.0003039,70.0001,146.4921,275.1906,84.8906,0.00012427,1.39e-05,0.0,0 STARLINK-6231,1 56779U 23078N   24013.59270562  .00001390  00000-0  12427-3 0  9992,2 56779  70.0001 146.4921 0003039 275.1906  84.8906 14.98334680 35410,6950.178,96.107,574.156,569.931,0.0
56779.0,STARLINK-6231,PAYLOAD,2024-01-13 19:01:53,14.98339471,0.0003001,70.0002,145.9874,275.6969,84.3848,0.00017059,1.944e-05,0.0,0 STARLINK-6231,1 56779U 23078N   24013.79298043  .00001944  00000-0  17059-3 0  9999,2 56779  70.0002 145.9874 0003001 275.6969  84.3848 14.98339471 35711,6950.164,96.106,574.114,569.943,0.0
56779.0,STARLINK-6231,PAYLOAD,2024-01-14 11:03:15,14.98327212,0.0002428,70.0015,144.3057,266.2818,93.8063,2.802e-05,2.41e-06,0.0,0 STARLINK-6231,1 56779U 23078N   24014.46059103  .00000241  00000-0  28020-4 0  9996,2 56779  70.0015 144.3057 0002428 266.2818  93.8063 14.98327212 35817,6950.202,96.107,573.754,570.379,0.0
56779.0,STARLINK-6231,PAYLOAD,2024-01-14 14:15:31,14.98327056,0.0002787,70.0009,143.9687,270.2759,89.8081,1.2893e-05,6.1e-07,0.0,0 STARLINK-6231,1 56779U 23078N   24014.59411143  .00000061  00000-0  12893-4 0  9997,2 56779  70.0009 143.9687 0002787 270.2759  89.8081 14.98327056 35564,6950.202,96.107,574.004,570.13,0.0
56779.0,STARLINK-6231,PAYLOAD,2024-01-14 17:27:47,14.9832607,0.0002492,70.0013,143.6321,270.4174,89.67,1.4368e-05,7.9e-07,0.0,0 STARLINK-6231,1 56779U 23078N   24014.72763233  .00000079  00000-0  14368-4 0  9990,2 56779  70.0013 143.6321 0002492 270.4174  89.6700 14.98326070 35580,6950.205,96.107,573.802,570.338,0.0
56779.0,STARLINK-6231,PAYLOAD,2024-01-15 12:41:23,14.98333859,0.0002986,70.0002,141.6119,271.2181,88.8635,-0.00012164,-1.544e-05,0.0,0 STARLINK-6231,1 56779U 23078N   24015.52874900 -.00001544  00000-0 -12164-3 0  9994,2 56779  70.0002 141.6119 0002986 271.2181  88.8635 14.98333859 35970,6950.181,96.107,574.121,569.971,0.0
56779.0,STARLINK-6231,PAYLOAD,2024-01-15 14:17:31,14.98333513,0.0002907,70.0003,141.4433,269.2786,90.804,-0.00011647,-1.483e-05,0.0,0 STARLINK-6231,1 56779U 23078N   24015.59550874 -.00001483  00000-0 -11647-3 0  9999,2 56779  70.0003 141.4433 0002907 269.2786  90.8040 14.98333513 35711,6950.182,96.107,574.067,570.027,0.0
56779.0,STARLINK-6231,PAYLOAD,2024-01-15 17:29:47,14.98337858,0.0002936,70.0001,141.106,269.7364,90.3459,-5.9281e-05,-8e-06,0.0,0 STARLINK-6231,1 56779U 23078N   24015.72902375 -.00000800  00000-0 -59281-4 0  9990,2 56779  70.0001 141.1060 0002936 269.7364  90.3459 14.98337858 35738,6950.169,96.106,574.074,569.993,0.0
56779.0,STARLINK-6231,PAYLOAD,2024-01-16 12:43:25,14.98323152,0.0002744,70.0006,139.0869,261.9774,98.1074,-3.2091e-05,-4.76e-06,0.0,0 STARLINK-6231,1 56779U 23078N   24016.53015195 -.00000476  00000-0 -32091-4 0  9994,2 56779  70.0006 139.0869 0002744 261.9774  98.1074 14.98323152 36127,6950.214,96.107,573.986,570.172,0.0
56779.0,STARLINK-6231,PAYLOAD,2024-01-16 14:19:33,14.98323137,0.0002736,70.0006,138.9186,261.6612,98.4236,-3.0871e-05,-4.61e-06,0.0,0 STARLINK-6231,1 56779U 23078N   24016.59691218 -.00000461  00000-0 -30871-4 0  9994,2 56779  70.0006 138.9186 0002736 261.6612  98.4236 14.98323137 35862,6950.214,96.107,573.981,570.178,0.0
56779.0,STARLINK-6231,PAYLOAD,2024-01-16 17:31:49,14.98324563,0.0002909,70.0007,138.5826,265.7058,94.3768,-2.2016e-06,-1.19e-06,0.0,0 STARLINK-6231,1 56779U 23078N   24016.73043083 -.00000119  00000-0 -22016-5 0  9994,2 56779  70.0007 138.5826 0002909 265.7058  94.3768 14.98324563 35882,6950.21,96.107,574.097,570.053,0.0
56779.0,STARLINK-6231,PAYLOAD,2024-01-17 11:09:17,14.98327785,0.0002655,70.0007,136.7309,258.0008,102.0854,7.9866e-06,2e-08,0.0,0 STARLINK-6231,1 56779U 23078N   24017.46478940  .00000002  00000-0  79866-5 0  9993,2 56779  70.0007 136.7309 0002655 258.0008 102.0854 14.98327785 36261,6950.2,96.107,573.91,570.219,0.0
56779.0,STARLINK-6231,PAYLOAD,2024-01-17 14:21:33,14.98328053,0.0002641,70.0009,136.3945,257.5609,102.5255,1.3115e-05,6.4e-07,0.0,0 STARLINK-6231,1 56779U 23078N   24017.59830928  .00000064  00000-0  13115-4 0  9997,2 56779  70.0009 136.3945 0002641 257.5609 102.5255 14.98328053 36013,6950.199,96.107,573.899,570.228,0.0
56779.0,STARLINK-6231,PAYLOAD,2024-01-17 17:33:48,14.98391531,0.0003006,70.0009,136.0586,254.5091,105.5736,-0.0010473,-0.00012587,0.0,0 STARLINK-6231,1 56779U 23078N   24017.73181256 -.00012587  00000-0 -10473-2 0  9993,2 56779  70.0009 136.0586 0003006 254.5091 105.5736 14.98391531 36309,6950.003,96.103,573.957,569.778,0.0
56779.0,STARLINK-6231,PAYLOAD,2024-01-18 11:11:18,14.98327594,0.0002673,70.0009,134.2073,257.7261,102.3599,4.6074e-05,4.57e-06,0.0,0 STARLINK-6231,1 56779U 23078N   24018.46618901  .00000457  00000-0  46074-4 0  9995,2 56779  70.0009 134.2073 0002673 257.7261 102.3599 14.98327594 36415,6950.2,96.107,573.923,570.208,0.0
56779.0,STARLINK-6231,PAYLOAD,2024-01-18 14:23:34,14.9832861,0.0002651,70.001,133.8708,257.2013,102.885,5.6972e-05,5.87e-06,0.0,0 STARLINK-6231,1 56779U 23078N   24018.59970820  .00000587  00000-0  56972-4 0  9992,2 56779  70.0010 133.8708 0002651 257.2013 102.8850 14.98328610 36160,6950.197,96.107,573.905,570.22,0.0
56779.0,STARLINK-6231,PAYLOAD,2024-01-18 17:35:50,14.98330687,0.0002636,70.001,133.5344,257.2231,102.8634,7.7045e-05,8.26e-06,0.0,0 STARLINK-6231,1 56779U 23078N   24018.73322627  .00000826  00000-0  77045-4 0  9994,2 56779  70.0010 133.5344 0002636 257.2231 102.8634 14.98330687 36187,6950.191,96.107,573.888,570.224,0.0
56779.0,STARLINK-6231,PAYLOAD,2024-01-19 11:13:19,14.98333599,0.0002619,70.0012,131.6829,255.5167,104.5702,2.9881e-05,2.64e-06,0.0,0 STARLINK-6231,1 56779U 23078N   24019.46758431  .00000264  00000-0  29881-4 0  9992,2 56779  70.0012 131.6829 0002619 255.5167 104.5702 14.98333599 36568,6950.182,96.107,573.867,570.227,0.0
56779.0,STARLINK-6231,PAYLOAD,2024-01-19 14:25:35,14.98333973,0.0002609,70.0012,131.3462,254.9098,105.1773,3.4171e-05,3.15e-06,0.0,0 STARLINK-6231,1 56779U 23078N   24019.60110357  .00000315  00000-0  34171-4 0  9992,2 56779  70.0012 131.3462 0002609 254.9098 105.1773 14.98333973 36317,6950.181,96.107,573.859,570.232,0.0
